NORAD_CAT_ID,OBJECT_NAME,OBJECT_TYPE,EPOCH,MEAN_MOTION,ECCENTRICITY,INCLINATION,RA_OF_ASC_NODE,ARG_OF_PERICENTER,MEAN_ANOMALY,BSTAR,MEAN_MOTION_DOT,MEAN_MOTION_DDOT,TLE_LINE0,TLE_LINE1,TLE_LINE2,SEMIMAJOR_AXIS,PERIOD,APOGEE,PERIGEE,DECAYED
53906.0,STARLINK-5054,PAYLOAD,2023-09-16 17:52:56,15.08857669,0.0001253,53.2166,56.2532,70.9668,289.146,0.00083617,0.00013051,0.0,0 STARLINK-5054,1 53906U 22119W   23259.74510144  .00013051  00000-0  83617-3 0  9993,2 53906  53.2166  56.2532 0001253  70.9668 289.1460 15.08857669 54798,6917.826,95.436,540.558,538.825,0.0
53906.0,STARLINK-5054,PAYLOAD,2023-09-17 09:46:47,15.08863242,0.0001219,53.2166,53.2799,70.002,290.1104,0.00052258,8.044e-05,0.0,0 STARLINK-5054,1 53906U 22119W   23260.40749414  .00008044  00000-0  52258-3 0  9995,2 53906  53.2166  53.2799 0001219  70.0020 290.1104 15.08863242 55315,6917.809,95.436,540.518,538.831,0.0
53906.0,STARLINK-5054,PAYLOAD,2023-09-18 09:37:34,15.08857153,0.0002177,53.2171,48.8196,79.7878,280.3359,0.00064325,9.969e-05,0.0,0 STARLINK-5054,1 53906U 22119W   23261.40108975  .00009969  00000-0  64325-3 0  9992,2 53906  53.2171  48.8196 0002177  79.7878 280.3359 15.08857153 55040,6917.828,95.436,541.199,538.187,0.0
53906.0,STARLINK-5054,PAYLOAD,2023-09-18 17:34:29,15.08848147,0.000136,53.217,47.3327,82.6377,277.477,0.00031311,4.7e-05,0.0,0 STARLINK-5054,1 53906U 22119W   23261.73228771  .00004700  00000-0  31311-3 0  9992,2 53906  53.2170  47.3327 0001360  82.6377 277.4770 15.08848147 55091,6917.855,95.437,540.661,538.78,0.0
53906.0,STARLINK-5054,PAYLOAD,2023-09-19 09:28:20,15.08843957,0.0001284,53.2167,44.3589,90.0893,270.0246,0.00013998,1.941e-05,0.0,0 STARLINK-5054,1 53906U 22119W   23262.39468698  .00001941  00000-0  13998-3 0  9994,2 53906  53.2167  44.3589 0001284  90.0893 270.0246 15.08843957 55197,6917.868,95.437,540.622,538.845,0.0
53906.0,STARLINK-5054,PAYLOAD,2023-09-19 17:25:16,15.08857026,0.0001309,53.217,42.8719,95.4389,264.6752,0.00038453,5.84e-05,0.0,0 STARLINK-5054,1 53906U 22119W   23262.72588165  .00005840  00000-0  38453-3 0  9998,2 53906  53.2170  42.8719 0001309  95.4389 264.6752 15.08857026 55245,6917.828,95.436,540.599,538.788,0.0
53906.0,STARLINK-5054,PAYLOAD,2023-09-20 14:05:17,15.08831433,0.0001969,53.2184,39.0081,135.621,224.494,-4.0427e-05,-9.31e-06,0.0,0 STARLINK-5054,1 53906U 22119W   23263.58701271 -.00000931  00000-0 -40427-4 0  9991,2 53906  53.2184  39.0081 0001969 135.6210 224.4940 15.08831433 55799,6917.907,95.438,541.134,538.409,0.0
53906.0,STARLINK-5054,PAYLOAD,2023-09-20 18:51:27,15.08828716,0.0001236,53.2175,38.1148,101.7782,258.3349,-6.7895e-05,-1.368e-05,0.0,0 STARLINK-5054,1 53906U 22119W   23263.78573796 -.00001368  00000-0 -67895-4 0  9995,2 53906  53.2175  38.1148 0001236 101.7782 258.3349 15.08828716 55405,6917.915,95.438,540.635,538.925,0.0
53906.0,STARLINK-5054,PAYLOAD,2023-09-21 09:09:55,15.08839159,0.0001117,53.2175,35.44,97.0324,263.0795,0.00020523,2.98e-05,0.0,0 STARLINK-5054,1 53906U 22119W   23264.38189751  .00002980  00000-0  20523-3 0  9991,2 53906  53.2175  35.4400 0001117  97.0324 263.0795 15.08839159 55493,6917.883,95.438,540.521,538.975,0.0
53906.0,STARLINK-5054,PAYLOAD,2023-09-21 12:20:42,15.08844238,0.000112,53.2172,34.8461,95.2539,264.8581,0.00030715,4.604e-05,0.0,0 STARLINK-5054,1 53906U 22119W   23264.51437604  .00004604  00000-0  30715-3 0  9998,2 53906  53.2172  34.8461 0001120  95.2539 264.8581 15.08844238 55937,6917.867,95.437,540.507,538.958,0.0
53906.0,STARLINK-5054,PAYLOAD,2023-09-21 17:06:51,15.08856172,0.0001209,53.2178,33.9518,104.0363,256.0764,0.00086873,0.00013571,0.0,0 STARLINK-5054,1 53906U 22119W   23264.71309499  .00013571  00000-0  86873-3 0  9999,2 53906  53.2178  33.9518 0001209 104.0363 256.0764 15.08856172 55541,6917.831,95.437,540.532,538.86,0.0
53906.0,STARLINK-5054,PAYLOAD,2023-09-22 13:46:51,15.08850812,0.0001594,53.2192,30.0819,116.3074,243.8082,0.00034227,5.165e-05,0.0,0 STARLINK-5054,1 53906U 22119W   23265.57421293  .00005165  00000-0  34227-3 0  9997,2 53906  53.2192  30.0819 0001594 116.3074 243.8082 15.08850812 56094,6917.847,95.437,540.815,538.61,0.0
53906.0,STARLINK-5054,PAYLOAD,2023-09-22 16:57:38,15.08848051,0.0001455,53.2192,29.4873,108.6114,251.5036,0.00029482,4.408e-05,0.0,0 STARLINK-5054,1 53906U 22119W   23265.70669339  .00004408  00000-0  29482-3 0  9993,2 53906  53.2192  29.4873 0001455 108.6114 251.5036 15.08848051 55693,6917.856,95.437,540.727,538.714,0.0
53906.0,STARLINK-5054,PAYLOAD,2023-09-23 13:37:38,15.08848636,0.0001253,53.2188,25.6255,93.6843,266.4292,2.6462e-05,1.33e-06,0.0,0 STARLINK-5054,1 53906U 22119W   23266.56780976  .00000133  00000-0  26462-4 0  9996,2 53906  53.2188  25.6255 0001253  93.6843 266.4292 15.08848636 56248,6917.854,95.437,540.586,538.852,0.0
53906.0,STARLINK-5054,PAYLOAD,2023-09-24 13:28:25,15.08845247,0.0001289,53.2187,21.167,93.1124,267.0016,0.00010076,1.316e-05,0.0,0 STARLINK-5054,1 53906U 22119W   23267.56141191  .00001316  00000-0  10076-3 0  9994,2 53906  53.2187  21.1670 0001289  93.1124 267.0016 15.08845247 56397,6917.864,95.437,540.621,538.838,0.0
53906.0,STARLINK-5054,PAYLOAD,2023-09-24 16:39:11,15.08852511,0.0001289,53.2183,20.569,93.3645,266.7494,0.00025424,3.762e-05,0.0,0 STARLINK-5054,1 53906U 22119W   23267.69388878  .00003762  00000-0  25424-3 0  9993,2 53906  53.2183  20.5690 0001289  93.3645 266.7494 15.08852511 55991,6917.842,95.437,540.599,538.815,0.0
53906.0,STARLINK-5054,PAYLOAD,2023-09-25 06:57:40,15.08842665,0.000142,53.2186,17.8967,95.2253,264.8901,0.00016595,2.354e-05,0.0,0 STARLINK-5054,1 53906U 22119W   23268.29005456  .00002354  00000-0  16595-3 0  9993,2 53906  53.2186  17.8967 0001420  95.2253 264.8901 15.08842665 56085,6917.872,95.437,540.72,538.755,0.0
53906.0,STARLINK-5054,PAYLOAD,2023-09-25 13:19:13,15.08842253,0.0001527,53.2173,16.707,89.0489,271.0678,0.00014902,2.085e-05,0.0,0 STARLINK-5054,1 53906U 22119W   23268.55501535  .00002085  00000-0  14902-3 0  9992,2 53906  53.2173  16.7070 0001527  89.0489 271.0678 15.08842253 56549,6917.874,95.437,540.795,538.682,0.0
53906.0,STARLINK-5054,PAYLOAD,2023-09-25 14:54:36,15.08854193,0.0001281,53.2176,16.4047,83.125,276.9888,0.00037176,5.636e-05,0.0,0 STARLINK-5054,1 53906U 22119W   23268.62125159  .00005636  00000-0  37176-3 0  9997,2 53906  53.2176  16.4047 0001281  83.1250 276.9888 15.08854193 56555,6917.837,95.437,540.588,538.816,0.0
53906.0,STARLINK-5054,PAYLOAD,2023-09-26 14:45:23,15.08857288,0.0001254,53.2174,11.9484,84.3669,275.7466,0.00042774,6.529e-05,0.0,0 STARLINK-5054,1 53906U 22119W   23269.61485063  .00006529  00000-0  42774-3 0  9992,2 53906  53.2174  11.9484 0001254  84.3669 275.7466 15.08857288 56709,6917.828,95.436,540.56,538.825,0.0
53906.0,STARLINK-5054,PAYLOAD,2023-09-27 13:00:47,15.08840177,0.0001398,53.218,7.7822,98.9081,261.2069,0.00012989,1.78e-05,0.0,0 STARLINK-5054,1 53906U 22119W   23270.54221563  .00001780  00000-0  12989-3 0  9998,2 53906  53.2180   7.7822 0001398  98.9081 261.2069 15.08840177 56846,6917.88,95.438,540.712,538.778,0.0
53906.0,STARLINK-5054,PAYLOAD,2023-09-28 12:51:34,15.08842224,0.0001322,53.2172,3.3267,83.7601,276.3542,0.00010764,1.426e-05,0.0,0 STARLINK-5054,1 53906U 22119W   23271.53582110  .00001426  00000-0  10764-3 0  9992,2 53906  53.2172   3.3267 0001322  83.7601 276.3542 15.08842224 56577,6917.874,95.437,540.653,538.824,0.0
53906.0,STARLINK-5054,PAYLOAD,2023-09-28 16:02:21,15.0884437,0.0001402,53.2177,2.7291,100.046,260.0691,0.0002104,3.063e-05,0.0,0 STARLINK-5054,1 53906U 22119W   23271.66829992  .00003063  00000-0  21040-3 0  9996,2 53906  53.2177   2.7291 0001402 100.0460 260.0691 15.08844370 57016,6917.867,95.437,540.702,538.762,0.0
53906.0,STARLINK-5054,PAYLOAD,2023-09-29 09:31:35,15.08839621,0.0001801,53.2175,359.456,109.8516,250.267,0.00014274,1.984e-05,0.0,0 STARLINK-5054,1 53906U 22119W   23272.39694381  .00001984  00000-0  14274-3 0  9990,2 53906  53.2175 359.4560 0001801 109.8516 250.2670 15.08839621 57120,6917.882,95.438,540.992,538.501,0.0
53906.0,STARLINK-5054,PAYLOAD,2023-09-29 14:17:45,15.08840876,0.0001641,53.2172,358.5636,101.7772,258.3404,0.00017651,2.522e-05,0.0,0 STARLINK-5054,1 53906U 22119W   23272.59566425  .00002522  00000-0  17651-3 0  9990,2 53906  53.2172 358.5636 0001641 101.7772 258.3404 15.08840876 56732,6917.878,95.437,540.878,538.607,0.0
53906.0,STARLINK-5054,PAYLOAD,2023-09-30 09:22:21,15.08876109,0.0001497,53.2172,354.9947,112.0776,248.0375,-0.00053407,-8.786e-05,0.0,0 STARLINK-5054,1 53906U 22119W   23273.39052445 -.00008786  00000-0 -53407-3 0  9990,2 53906  53.2172 354.9947 0001497 112.0776 248.0375 15.08876109 56859,6917.77,95.435,540.671,538.599,0.0
53906.0,STARLINK-5054,PAYLOAD,2023-09-30 12:33:08,15.0886176,0.0001466,53.2182,354.4066,89.9103,270.2057,0.00045221,6.921e-05,0.0,0 STARLINK-5054,1 53906U 22119W   23273.52301471  .00006921  00000-0  45221-3 0  9993,2 53906  53.2182 354.4066 0001466  89.9103 270.2057 15.08861760 56872,6917.814,95.436,540.693,538.665,0.0
53906.0,STARLINK-5054,PAYLOAD,2023-09-30 22:05:27,15.08854527,0.000121,53.2162,352.6202,82.8179,277.2951,0.00030181,4.521e-05,0.0,0 STARLINK-5054,1 53906U 22119W   23273.92045450  .00004521  00000-0  30181-3 0  9992,2 53906  53.2162 352.6202 0001210  82.8179 277.2951 15.08854527 56934,6917.836,95.437,540.538,538.864,0.0
53906.0,STARLINK-5054,PAYLOAD,2023-10-01 10:48:32,15.08847146,0.0001674,53.2185,350.2405,96.433,263.6853,-1.4962e-05,-5.26e-06,0.0,0 STARLINK-5054,1 53906U 22119W   23274.45037425 -.00000526  00000-0 -14962-4 0  9997,2 53906  53.2185 350.2405 0001674  96.4330 263.6853 15.08847146 57011,6917.859,95.437,540.882,538.565,0.0
53906.0,STARLINK-5054,PAYLOAD,2023-10-01 12:23:55,15.08851515,0.0001532,53.2185,349.9471,101.0633,259.0531,0.0001187,1.602e-05,0.0,0 STARLINK-5054,1 53906U 22119W   23274.51661361  .00001602  00000-0  11870-3 0  9994,2 53906  53.2185 349.9471 0001532 101.0633 259.0531 15.08851515 57445,6917.845,95.437,540.77,538.65,0.0
